H1 CPF  1  DLR 2022 04 26 10  6162 technosat            
H2  1704205 6203    42829 2022 04 26 00 00 00 2022 05 03 00 00 00    60 1 1  0 0 0
H9
10 0 59695  50400.000000  0       -890454.594      -2034451.110       6602343.835
10 0 59695  50460.000000  0       -906455.121      -1592397.508       6719633.632
10 0 59695  50520.000000  0       -914745.667      -1143540.809       6808459.566
10 0 59695  50580.000000  0       -915239.593       -689835.644       6868440.078
10 0 59695  50640.000000  0       -907900.176       -233258.193       6899314.834
10 0 59695  50700.000000  0       -892740.931        224202.358       6900945.885
10 0 59695  50760.000000  0       -869825.650        680552.484       6873318.378
10 0 59695  50820.000000  0       -839268.155       1133803.000       6816540.723
10 0 59695  50880.000000  0       -801231.771       1581977.720       6730844.294
10 0 59695  50940.000000  0       -755928.530       2023122.097       6616582.663
10 0 59695  51000.000000  0       -703618.098       2455311.792       6474230.306
10 0 59695  51060.000000  0       -644606.423       2876661.109       6304380.869
10 0 59695  51120.000000  0       -579244.149       3285331.384       6107744.959
10 0 59695  51180.000000  0       -507924.745       3679539.188       5885147.355
10 0 59695  51240.000000  0       -431082.376       4057564.274       5637523.770
10 0 59695  51300.000000  0       -349189.522       4417757.292       5365917.169
10 0 59695  51360.000000  0       -262754.371       4758547.304       5071473.683
10 0 59695  51420.000000  0       -172317.988       5078449.074       4755437.946
10 0 59695  51480.000000  0        -78451.231       5376069.935       4419147.840
10 0 59695  51540.000000  0         18248.514       5650116.027       4064028.822
10 0 59695  51600.000000  0        117160.727       5899398.117       3691588.160
10 0 59695  51660.000000  0        217645.274       6122837.390       3303408.844
10 0 59695  51720.000000  0        319046.157       6319470.885       2901142.731
10 0 59695  51780.000000  0        420695.488       6488456.086       2486503.029
10 0 59695  51840.000000  0        521917.470       6629074.523       2061256.800
10 0 59695  51900.000000  0        622032.369       6740735.214       1627217.347
10 0 59695  51960.000000  0        720360.620       6822977.403       1186236.107
10 0 59695  52020.000000  0        816226.969       6875472.565        740194.479
10 0 59695  52080.000000  0        908964.595       6898025.871        290995.499
10 0 59695  52140.000000  0        997919.184       6890576.936       -159444.686
10 0 59695  52200.000000  0       1082452.939       6853199.845       -609205.340
10 0 59695  52260.000000  0       1161948.479       6786102.550      -1056369.647
10 0 59695  52320.000000  0       1235812.645       6689625.635      -1499033.195
10 0 59695  52380.000000  0       1303480.175       6564240.411      -1935312.394
10 0 59695  52440.000000  0       1364417.220       6410546.385      -2363352.761
10 0 59695  52500.000000  0       1418124.687       6229268.087      -2781337.057
10 0 59695  52560.000000  0       1464141.394       6021251.300      -3187493.180
10 0 59695  52620.000000  0       1502046.999       5787458.712      -3580101.820
10 0 59695  52680.000000  0       1531464.717       5528965.031      -3957503.810
10 0 59695  52740.000000  0       1552063.788       5246951.587      -4318107.136
10 0 59695  52800.000000  0       1563561.673       4942700.461      -4660393.569
10 0 59695  52860.000000  0       1565725.976       4617588.210      -4982924.880
10 0 59695  52920.000000  0       1558376.093       4273079.262      -5284348.647
10 0 59695  52980.000000  0       1541384.587       3910719.008      -5563403.682
10 0 59695  53040.000000  0       1514678.282       3532126.546      -5818925.077
10 0 59695  53100.000000  0       1478239.043       3138987.106      -6049848.709
10 0 59695  53160.000000  0       1432104.253       2733044.327      -6255215.272
10 0 59695  53220.000000  0       1376367.012       2316092.377      -6434173.848
10 0 59695  53280.000000  0       1311176.075       1889967.991      -6585985.011
10 0 59695  53340.000000  0       1236735.514       1456542.402      -6710023.597
10 0 59695  53400.000000  0       1153304.058       1017713.091      -6805780.960
10 0 59695  53460.000000  0       1061194.159        575395.562      -6872866.705
10 0 59695  53520.000000  0        960770.804        131515.105      -6911010.021
10 0 59695  53580.000000  0        852450.027       -312001.485      -6920060.538
10 0 59695  53640.000000  0        736697.150       -753234.086      -6899988.667
10 0 59695  53700.000000  0        614024.797      -1190277.314      -6850885.546
10 0 59695  53760.000000  0        484990.679      -1621248.496      -6772962.534
10 0 59695  53820.000000  0        350195.135      -2044295.488      -6666550.343
10 0 59695  53880.000000  0        210278.423      -2457604.441      -6532097.839
10 0 59695  53940.000000  0         65917.722      -2859407.524      -6370170.287
10 0 59695  54000.000000  0        -82176.038      -3247990.380      -6181447.050
10 0 59695  54060.000000  0       -233261.527      -3621699.281      -5966718.910
10 0 59695  54120.000000  0       -386570.545      -3978948.093      -5726885.023
10 0 59695  54180.000000  0       -541311.750      -4318224.997      -5462949.450
10 0 59695  54240.000000  0       -696674.561      -4638098.944      -5176017.247
10 0 59695  54300.000000  0       -851833.220      -4937225.789      -4867290.125
10 0 59695  54360.000000  0      -1005950.993      -5214354.075      -4538061.702
10 0 59695  54420.000000  0      -1158184.477      -5468330.452      -4189712.344
10 0 59695  54480.000000  0      -1307688.000      -5698104.670      -3823703.612
10 0 59695  54540.000000  0      -1453618.085      -5902734.141      -3441572.351
10 0 59695  54600.000000  0      -1595137.963      -6081388.050      -3044924.439
10 0 59695  54660.000000  0      -1731422.116      -6233350.997      -2635428.212
10 0 59695  54720.000000  0      -1861660.826      -6358026.160      -2214807.552
10 0 59695  54780.000000  0      -1985064.683      -6454937.909      -1784834.684
10 0 59695  54840.000000  0      -2100869.040      -6523733.871      -1347322.714
10 0 59695  54900.000000  0      -2208338.384      -6564186.433       -904117.942
10 0 59695  54960.000000  0      -2306770.616      -6576193.638       -457091.986
10 0 59695  55020.000000  0      -2395501.184      -6559779.482         -8133.773
10 0 59695  55080.000000  0      -2473907.060      -6515093.608        440858.568
10 0 59695  55140.000000  0      -2541410.525      -6442410.427        887985.873
10 0 59695  55200.000000  0      -2597482.749      -6342127.630       1331356.134
10 0 59695  55260.000000  0      -2641647.136      -6214764.119       1769092.677
10 0 59695  55320.000000  0      -2673482.418      -6060957.340       2199342.266
10 0 59695  55380.000000  0      -2692625.466      -5881460.078       2620283.089
10 0 59695  55440.000000  0      -2698773.807      -5677136.705       3030132.593
10 0 59695  55500.000000  0      -2691687.837      -5448958.915       3427155.132
10 0 59695  55560.000000  0      -2671192.712      -5198000.990       3809669.363
10 0 59695  55620.000000  0      -2637179.929      -4925434.607       4176055.409
10 0 59695  55680.000000  0      -2589608.576      -4632523.238       4524761.712
10 0 59695  55740.000000  0      -2528506.280      -4320616.167       4854311.594
10 0 59695  55800.000000  0      -2453969.791      -3991142.122       5163309.521
10 0 59695  55860.000000  0      -2366165.181      -3645602.508       5450446.950
10 0 59695  55920.000000  0      -2265327.685      -3285564.417       5714507.714
10 0 59695  55980.000000  0      -2151761.227      -2912653.443       5954373.050
10 0 59695  56040.000000  0      -2025837.569      -2528546.274       6169026.214
10 0 59695  56100.000000  0      -1887995.146      -2134963.139       6357556.675
10 0 59695  56160.000000  0      -1738737.576      -1733660.068       6519163.920
10 0 59695  56220.000000  0      -1578631.824      -1326420.972       6653160.757
10 0 59695  56280.000000  0      -1408306.066       -915049.643       6758976.088
10 0 59695  56340.000000  0      -1228447.282       -501361.786       6836157.162
10 0 59695  56400.000000  0      -1039798.559        -87177.128       6884371.472
10 0 59695  56460.000000  0       -843156.070        325688.540       6903408.266
10 0 59695  56520.000000  0       -639365.751        735431.336       6893179.545
10 0 59695  56580.000000  0       -429319.681       1140267.172       6853720.522
10 0 59695  56640.000000  0       -213952.224       1538439.525       6785189.634
10 0 59695  56700.000000  0          5764.108       1928227.110       6687868.059
10 0 59695  56760.000000  0        228823.023       2307951.373       6562158.677
10 0 59695  56820.000000  0        454189.009       2675983.728       6408584.596
10 0 59695  56880.000000  0        680802.090       3030752.657       6227787.246
10 0 59695  56940.000000  0        907582.781       3370750.587       6020523.943
10 0 59695  57000.000000  0       1133437.200       3694540.493       5787664.940
10 0 59695  57060.000000  0       1357262.315       4000762.178       5530190.008
10 0 59695  57120.000000  0       1577951.336       4288138.251       5249184.571
10 0 59695  57180.000000  0       1794399.217       4555479.792       4945835.342
10 0 59695  57240.000000  0       2005508.229       4801691.584       4621425.416
10 0 59695  57300.000000  0       2210193.530       5025776.837       4277328.953
10 0 59695  57360.000000  0       2407388.772       5226841.498       3915005.503
10 0 59695  57420.000000  0       2596051.675       5404098.128       3535993.941
10 0 59695  57480.000000  0       2775169.607       5556869.505       3141906.015
10 0 59695  57540.000000  0       2943765.074       5684591.614       2734419.265
99
